{"type": "FeatureCollection", "features": [ {"type": "Feature", "properties": {"norad_id": 66826, "name": "STARLINK-35898", "group": "last-30-days", "lat": 1.4162624395305137, "lon": -174.2838674015848, "alt_km": 385.0584039793557, "timestamp": "2025-12-17T13:48:36.280323+00:00", "meta": {"OBJECT_NAME": "STARLINK-35898", "OBJECT_ID": "2025-280F", "EPOCH": "2025-12-17T08:00:04.999680", "MEAN_MOTION": 15.62749703, "ECCENTRICITY": 0.00037255, "INCLINATION": 70, "RA_OF_ASC_NODE": 185.8725, "ARG_OF_PERICENTER": 273.7377, "MEAN_ANOMALY": 167.0821, "EPHEMERIS_TYPE": 0, "CLASSIFICATION_TYPE": "U", "NORAD_CAT_ID": 66826, "ELEMENT_SET_NO": 999, "REV_AT_EPOCH": 363, "BSTAR": -0.024272752, "MEAN_MOTION_DOT": -0.01935191, "MEAN_MOTION_DDOT": 0}, "tle": {"line1": "1 66826U 25280F   25351.33339120 -.01935191  00000+0 -24273-1 0  9994", "line2": "2 66826  70.0000 185.8725 0003725 273.7377 167.0821 15.62749703  3637"}}, "geometry": {"type": "Point", "coordinates": [-174.2838674015848, 1.4162624395305137]}}, {"type": "Feature", "properties": {"norad_id": 66827, "name": "STARLINK-35959", "group": "last-30-days", "lat": 3.2177856053530034, "lon": -173.628769130057, "alt_km": 384.90996633903524, "timestamp": "2025-12-17T13:48:36.280332+00:00", "meta": {"OBJECT_NAME": "STARLINK-35959", "OBJECT_ID": "2025-280G", "EPOCH": "2025-12-17T08:00:04.999680", "MEAN_MOTION": 15.62747247, "ECCENTRICITY": 0.00037474, "INCLINATION": 69.9994, "RA_OF_ASC_NODE": 185.8702, "ARG_OF_PERICENTER": 273.4015, "MEAN_ANOMALY": 169.3357, "EPHEMERIS_TYPE": 0, "CLASSIFICATION_TYPE": "U", "NORAD_CAT_ID": 66827, "ELEMENT_SET_NO": 999, "REV_AT_EPOCH": 363, "BSTAR": -0.024200751, "MEAN_MOTION_DOT": -0.01929973, "MEAN_MOTION_DDOT": 0}, "tle": {"line1": "1 66827U 25280G   25351.33339120 -.01929973  00000+0 -24201-1 0  9997", "line2": "2 66827  69.9994 185.8702 0003747 273.4015 169.3357 15.62747247  3632"}}, "geometry": {"type": "Point", "coordinates": [-173.628769130057, 3.2177856053530034]}}, {"type": "Feature", "properties": {"norad_id": 66828, "name": "STARLINK-35982", "group": "last-30-days", "lat": 6.817793025168818, "lon": -172.31060227777678, "alt_km": 384.64562475037746, "timestamp": "2025-12-17T13:48:36.280346+00:00", "meta": {"OBJECT_NAME": "STARLINK-35982", "OBJECT_ID": "2025-280H", "EPOCH": "2025-12-17T08:00:04.999680", "MEAN_MOTION": 15.62748066, "ECCENTRICITY": 0.00036756, "INCLINATION": 69.9992, "RA_OF_ASC_NODE": 185.8658, "ARG_OF_PERICENTER": 271.6148, "MEAN_ANOMALY": 174.9549, "EPHEMERIS_TYPE": 0, "CLASSIFICATION_TYPE": "U", "NORAD_CAT_ID": 66828, "ELEMENT_SET_NO": 999, "REV_AT_EPOCH": 363, "BSTAR": -0.024214862, "MEAN_MOTION_DOT": -0.01930957, "MEAN_MOTION_DDOT": 0}, "tle": {"line1": "1 66828U 25280H   25351.33339120 -.01930957  00000+0 -24215-1 0  9997", "line2": "2 66828  69.9992 185.8658 0003675 271.6148 174.9549 15.62748066  3633"}}, "geometry": {"type": "Point", "coordinates": [-172.31060227777678, 6.817793025168818]}}, {"type": "Feature", "properties": {"norad_id": 66829, "name": "STARLINK-36084", "group": "last-30-days", "lat": 5.018770658935708, "lon": -172.97146972175997, "alt_km": 384.7662189057155, "timestamp": "2025-12-17T13:48:36.280356+00:00", "meta": {"OBJECT_NAME": "STARLINK-36084", "OBJECT_ID": "2025-280J", "EPOCH": "2025-12-17T08:00:04.999680", "MEAN_MOTION": 15.62750586, "ECCENTRICITY": 0.0003708, "INCLINATION": 69.9992, "RA_OF_ASC_NODE": 185.8678, "ARG_OF_PERICENTER": 272.951, "MEAN_ANOMALY": 171.7025, "EPHEMERIS_TYPE": 0, "CLASSIFICATION_TYPE": "U", "NORAD_CAT_ID": 66829, "ELEMENT_SET_NO": 999, "REV_AT_EPOCH": 347, "BSTAR": -0.024306911, "MEAN_MOTION_DOT": -0.01937642, "MEAN_MOTION_DDOT": 0}, "tle": {"line1": "1 66829U 25280J   25351.33339120 -.01937642  00000+0 -24307-1 0  9998", "line2": "2 66829  69.9992 185.8678 0003708 272.9510 171.7025 15.62750586  3476"}}, "geometry": {"type": "Point", "coordinates": [-172.97146972175997, 5.018770658935708]}}, {"type": "Feature", "properties": {"norad_id": 66830, "name": "STARLINK-35881", "group": "last-30-days", "lat": 8.61733449026009, "lon": -171.6453354193439, "alt_km": 384.4006977145573, "timestamp": "2025-12-17T13:48:36.280365+00:00", "meta": {"OBJECT_NAME": "STARLINK-35881", "OBJECT_ID": "2025-280K", "EPOCH": "2025-12-17T08:00:04.999680", "MEAN_MOTION": 15.62751145, "ECCENTRICITY": 0.0003684, "INCLINATION": 69.9994, "RA_OF_ASC_NODE": 185.8627, "ARG_OF_PERICENTER": 273.0956, "MEAN_ANOMALY": 175.3892, "EPHEMERIS_TYPE": 0, "CLASSIFICATION_TYPE": "U", "NORAD_CAT_ID": 66830, "ELEMENT_SET_NO": 999, "REV_AT_EPOCH": 363, "BSTAR": -0.024280913, "MEAN_MOTION_DOT": -0.01935826, "MEAN_MOTION_DDOT": 0}, "tle": {"line1": "1 66830U 25280K   25351.33339120 -.01935826  00000+0 -24281-1 0  9993", "line2": "2 66830  69.9994 185.8627 0003684 273.0956 175.3892 15.62751145  3635"}}, "geometry": {"type": "Point", "coordinates": [-171.6453354193439, 8.61733449026009]}}, {"type": "Feature", "properties": {"norad_id": 66831, "name": "STARLINK-35788", "group": "last-30-days", "lat": 10.416480011111336, "lon": -170.97116437632252, "alt_km": 384.16790158516596, "timestamp": "2025-12-17T13:48:36.280374+00:00", "meta": {"OBJECT_NAME": "STARLINK-35788", "OBJECT_ID": "2025-280L", "EPOCH": "2025-12-17T08:00:04.999680", "MEAN_MOTION": 15.6275738, "ECCENTRICITY": 0.00037195, "INCLINATION": 69.9994, "RA_OF_ASC_NODE": 185.8618, "ARG_OF_PERICENTER": 274.4254, "MEAN_ANOMALY": 175.9747, "EPHEMERIS_TYPE": 0, "CLASSIFICATION_TYPE": "U", "NORAD_CAT_ID": 66831, "ELEMENT_SET_NO": 999, "REV_AT_EPOCH": 363, "BSTAR": -0.024481473, "MEAN_MOTION_DOT": -0.01950395, "MEAN_MOTION_DDOT": 0}, "tle": {"line1": "1 66831U 25280L   25351.33339120 -.01950395  00000+0 -24481-1 0  9994", "line2": "2 66831  69.9994 185.8618 0003719 274.4254 175.9747 15.62757380  3633"}}, "geometry": {"type": "Point", "coordinates": [-170.97116437632252, 10.416480011111336]}}, {"type": "Feature", "properties": {"norad_id": 66832, "name": "STARLINK-35768", "group": "last-30-days", "lat": 12.21152737028987, "lon": -170.29284815716687, "alt_km": 384.00272657261576, "timestamp": "2025-12-17T13:48:36.280384+00:00", "meta": {"OBJECT_NAME": "STARLINK-35768", "OBJECT_ID": "2025-280M", "EPOCH": "2025-12-17T08:00:04.999680", "MEAN_MOTION": 15.62746878, "ECCENTRICITY": 0.00036183, "INCLINATION": 69.9993, "RA_OF_ASC_NODE": 185.8582, "ARG_OF_PERICENTER": 273.4919, "MEAN_ANOMALY": 178.8277, "EPHEMERIS_TYPE": 0, "CLASSIFICATION_TYPE": "U", "NORAD_CAT_ID": 66832, "ELEMENT_SET_NO": 999, "REV_AT_EPOCH": 363, "BSTAR": -0.024197607, "MEAN_MOTION_DOT": -0.01929609, "MEAN_MOTION_DDOT": 0}, "tle": {"line1": "1 66832U 25280M   25351.33339120 -.01929609  00000+0 -24198-1 0  9994", "line2": "2 66832  69.9993 185.8582 0003618 273.4919 178.8277 15.62746878  3638"}}, "geometry": {"type": "Point", "coordinates": [-170.29284815716687, 12.21152737028987]}}, {"type": "Feature", "properties": {"norad_id": 66833, "name": "STARLINK-35858", "group": "last-30-days", "lat": 14.00667137489654, "lon": -169.60274754580377, "alt_km": 383.82831438551784, "timestamp": "2025-12-17T13:48:36.280393+00:00", "meta": {"OBJECT_NAME": "STARLINK-35858", "OBJECT_ID": "2025-280N", "EPOCH": "2025-12-17T08:00:04.999680", "MEAN_MOTION": 15.62747226, "ECCENTRICITY": 0.000361, "INCLINATION": 69.9993, "RA_OF_ASC_NODE": 185.8564, "ARG_OF_PERICENTER": 272.9309, "MEAN_ANOMALY": 181.3048, "EPHEMERIS_TYPE": 0, "CLASSIFICATION_TYPE": "U", "NORAD_CAT_ID": 66833, "ELEMENT_SET_NO": 999, "REV_AT_EPOCH": 363, "BSTAR": -0.02418969, "MEAN_MOTION_DOT": -0.01929067, "MEAN_MOTION_DDOT": 0}, "tle": {"line1": "1 66833U 25280N   25351.33339120 -.01929067  00000+0 -24190-1 0  9995", "line2": "2 66833  69.9993 185.8564 0003610 272.9309 181.3048 15.62747226  3631"}}, "geometry": {"type": "Point", "coordinates": [-169.60274754580377, 14.00667137489654]}}, {"type": "Feature", "properties": {"norad_id": 66834, "name": "STARLINK-35840", "group": "last-30-days", "lat": 15.80051688573042, "lon": -168.90277426884367, "alt_km": 383.6362610280412, "timestamp": "2025-12-17T13:48:36.280405+00:00", "meta": {"OBJECT_NAME": "STARLINK-35840", "OBJECT_ID": "2025-280P", "EPOCH": "2025-12-17T08:00:04.999680", "MEAN_MOTION": 15.62748255, "ECCENTRICITY": 0.00036148, "INCLINATION": 69.9993, "RA_OF_ASC_NODE": 185.8533, "ARG_OF_PERICENTER": 272.7994, "MEAN_ANOMALY": 183.3531, "EPHEMERIS_TYPE": 0, "CLASSIFICATION_TYPE": "U", "NORAD_CAT_ID": 66834, "ELEMENT_SET_NO": 999, "REV_AT_EPOCH": 363, "BSTAR": -0.024224856, "MEAN_MOTION_DOT": -0.01931619, "MEAN_MOTION_DDOT": 0}, "tle": {"line1": "1 66834U 25280P   25351.33339120 -.01931619  00000+0 -24225-1 0  9991", "line2": "2 66834  69.9993 185.8533 0003614 272.7994 183.3531 15.62748255  3632"}}, "geometry": {"type": "Point", "coordinates": [-168.90277426884367, 15.80051688573042]}}, {"type": "Feature", "properties": {"norad_id": 66835, "name": "STARLINK-35890", "group": "last-30-days", "lat": 17.59182825994818, "lon": -168.1894658456646, "alt_km": 383.41804458411116, "timestamp": "2025-12-17T13:48:36.280414+00:00", "meta": {"OBJECT_NAME": "STARLINK-35890", "OBJECT_ID": "2025-280Q", "EPOCH": "2025-12-17T08:00:04.999680", "MEAN_MOTION": 15.62753322, "ECCENTRICITY": 0.00036671, "INCLINATION": 69.9994, "RA_OF_ASC_NODE": 185.8511, "ARG_OF_PERICENTER": 273.3097, "MEAN_ANOMALY": 184.7561, "EPHEMERIS_TYPE": 0, "CLASSIFICATION_TYPE": "U", "NORAD_CAT_ID": 66835, "ELEMENT_SET_NO": 999, "REV_AT_EPOCH": 363, "BSTAR": -0.024310636, "MEAN_MOTION_DOT": -0.01938051, "MEAN_MOTION_DDOT": 0}, "tle": {"line1": "1 66835U 25280Q   25351.33339120 -.01938051  00000+0 -24311-1 0  9995", "line2": "2 66835  69.9994 185.8511 0003667 273.3097 184.7561 15.62753322  3638"}}, "geometry": {"type": "Point", "coordinates": [-168.1894658456646, 17.59182825994818]}}]}